{
"type": "FeatureCollection",
"name": "camino_mr",
"crs": { "type": "name", "properties": { "name": "urn:ogc:def:crs:OGC:1.3:CRS84" } },
"features": [
{ "type": "Feature", "properties": { "fid": 1, "order": 0, "altura_media": 504.449, "altura_anterior": 504.449, "delta_altura": 0.0, "pendiente_pct": 0.0, "pendiente_grados": 0.0, "mds_count": 147.0, "mds_sum": 74154.094141561422, "mds_mean": 504.44962001062191, "altura_vegetacion": 0.00027, "penetracion": 100.0, "ratio_veg": 1007.899, "mdt_mean": 504.44934503127723, "mdt_sum": 74154.053719597752, "mdt_count": 147 }, "geometry": { "type": "LineString", "coordinates": [ [ -0.754425, 42.33227, 491.73 ], [ -0.754344436184871, 42.332244450599383, 493.761259333433372 ], [ -0.754311735180108, 42.332238360467201, 494.602131882394588 ] ] } },
{ "type": "Feature", "properties": { "fid": 2, "order": 1, "altura_media": 503.287, "altura_anterior": 504.449, "delta_altura": -1.162, "pendiente_pct": -11.62, "pendiente_grados": -6.628, "mds_count": 147.0, "mds_sum": 73986.654424370965, "mds_mean": 503.31057431544872, "altura_vegetacion": 0.02325, "penetracion": 99.995, "ratio_veg": 1005.598, "mdt_mean": 503.28732329902971, "mdt_sum": 73983.236524957363, "mdt_count": 147 }, "geometry": { "type": "LineString", "coordinates": [ [ -0.754311735180108, 42.332238360467201, 494.602131882394588 ], [ -0.754302062854363, 42.332236559121689, 494.850845777911161 ], [ -0.754271025372886, 42.332237809118269, 495.67584577791115 ], [ -0.754242372200318, 42.332245361765111, 496.461954814926003 ], [ -0.754216103328749, 42.332259217063822, 497.209172888955607 ], [ -0.754202095827115, 42.332267168536553, 497.535917498126253 ] ] } },
{ "type": "Feature", "properties": { "fid": 3, "order": 2, "altura_media": 502.948, "altura_anterior": 503.287, "delta_altura": -0.339, "pendiente_pct": -3.39, "pendiente_grados": -1.942, "mds_count": 145.0, "mds_sum": 72928.425841057324, "mds_mean": 502.95466097280911, "altura_vegetacion": 0.0062, "penetracion": 99.999, "ratio_veg": 1004.903, "mdt_mean": 502.94846542084565, "mdt_sum": 72927.52748602262, "mdt_count": 145 }, "geometry": { "type": "LineString", "coordinates": [ [ -0.754202095827115, 42.332267168536553, 497.535917498126253 ], [ -0.754190508095047, 42.332273746404439, 497.806217528783577 ], [ -0.754165586498818, 42.332288949787419, 498.253088734409857 ], [ -0.754141338539708, 42.332304827213186, 498.549786505834561 ], [ -0.75411776421741, 42.332321378682167, 498.696310843057574 ], [ -0.75411146006699, 42.332326829368306, 498.740297907370177 ] ] } },
{ "type": "Feature", "properties": { "fid": 4, "order": 3, "altura_media": 503.138, "altura_anterior": 502.948, "delta_altura": 0.19, "pendiente_pct": 1.9, "pendiente_grados": 1.088, "mds_count": 148.0, "mds_sum": 74542.184636404127, "mds_mean": 503.66340970543331, "altura_vegetacion": 0.52563, "penetracion": 99.896, "ratio_veg": 1005.802, "mdt_mean": 503.13777856404545, "mdt_sum": 74464.391227478729, "mdt_count": 148 }, "geometry": { "type": "LineString", "coordinates": [ [ -0.75411146006699, 42.332326829368306, 498.740297907370177 ], [ -0.754097052977791, 42.332339286001613, 498.840823011669102 ], [ -0.754079204821834, 42.332358549173101, 498.983323011669086 ], [ -0.754064219750906, 42.332379168197967, 499.123810843057583 ], [ -0.754052097766741, 42.332401143077369, 499.262286505834595 ], [ -0.754051594898524, 42.33240418307561, 499.267670721242951 ] ] } },
{ "type": "Feature", "properties": { "fid": 5, "order": 4, "altura_media": 503.262, "altura_anterior": 503.138, "delta_altura": 0.124, "pendiente_pct": 1.24, "pendiente_grados": 0.71, "mds_count": 146.0, "mds_sum": 73480.124888346938, "mds_mean": 503.28852663251325, "altura_vegetacion": 0.02647, "penetracion": 99.995, "ratio_veg": 1005.551, "mdt_mean": 503.26205484365545, "mdt_sum": 73476.260007173696, "mdt_count": 146 }, "geometry": { "type": "LineString", "coordinates": [ [ -0.754051594898524, 42.33240418307561, 499.267670721242951 ], [ -0.754047242838249, 42.332430492649586, 499.314268252917316 ], [ -0.754049654973387, 42.332467216915632, 499.279756084305802 ], [ -0.754055449652625, 42.332493617762886, 499.207313034312563 ] ] } },
{ "type": "Feature", "properties": { "fid": 6, "order": 5, "altura_media": 503.251, "altura_anterior": 503.262, "delta_altura": -0.011, "pendiente_pct": -0.11, "pendiente_grados": -0.063, "mds_count": 151.0, "mds_sum": 75991.049985291815, "mds_mean": 503.2519866575617, "altura_vegetacion": 0.00068, "penetracion": 100.0, "ratio_veg": 1005.503, "mdt_mean": 503.251311032096, "mdt_sum": 75990.947965846499, "mdt_count": 151 }, "geometry": { "type": "LineString", "coordinates": [ [ -0.754055449652625, 42.332493617762886, 499.207313034312563 ], [ -0.754059334185162, 42.332511315875237, 499.15875 ], [ -0.754076280491626, 42.332562789526868, 498.95125 ], [ -0.754082209995132, 42.332581381185065, 498.881506457804733 ] ] } },
{ "type": "Feature", "properties": { "fid": 7, "order": 6, "altura_media": 503.615, "altura_anterior": 503.251, "delta_altura": 0.364, "pendiente_pct": 3.64, "pendiente_grados": 2.085, "mds_count": 148.0, "mds_sum": 74535.268048543105, "mds_mean": 503.61667600366962, "altura_vegetacion": 0.00181, "penetracion": 100.0, "ratio_veg": 1006.232, "mdt_mean": 503.61486653008632, "mdt_sum": 74535.000246452779, "mdt_count": 148 }, "geometry": { "type": "LineString", "coordinates": [ [ -0.754082209995132, 42.332581381185065, 498.881506457804733 ], [ -0.754092115227037, 42.332612438514978, 498.765 ], [ -0.754106838387561, 42.332660262840008, 498.6 ], [ -0.754109454704727, 42.332669104558335, 498.572369427811282 ] ] } },
{ "type": "Feature", "properties": { "fid": 8, "order": 7, "altura_media": 504.585, "altura_anterior": 503.615, "delta_altura": 0.97, "pendiente_pct": 9.7, "pendiente_grados": 5.54, "mds_count": 147.0, "mds_sum": 74174.291010513465, "mds_mean": 504.58701367696233, "altura_vegetacion": 0.00229, "penetracion": 100.0, "ratio_veg": 1008.172, "mdt_mean": 504.58472219260472, "mdt_sum": 74173.95416231289, "mdt_count": 147 }, "geometry": { "type": "LineString", "coordinates": [ [ -0.754109454704727, 42.332669104558335, 498.572369427811282 ], [ -0.754120449969554, 42.332706262502363, 498.45625 ], [ -0.754132949969553, 42.332750437502369, 498.333749999999895 ], [ -0.754134614137807, 42.332757167576055, 498.359503805981035 ] ] } },
{ "type": "Feature", "properties": { "fid": 9, "order": 8, "altura_media": 506.156, "altura_anterior": 504.585, "delta_altura": 1.571, "pendiente_pct": 15.71, "pendiente_grados": 8.928, "mds_count": 145.0, "mds_sum": 73463.908099406675, "mds_mean": 506.64764206487365, "altura_vegetacion": 0.49147, "penetracion": 99.903, "ratio_veg": 1011.805, "mdt_mean": 506.15617513642337, "mdt_sum": 73392.645394781386, "mdt_count": 145 }, "geometry": { "type": "LineString", "coordinates": [ [ -0.754134614137807, 42.332757167576055, 498.359503805981035 ], [ -0.75414297672363, 42.332790986743682, 498.488918776840364 ], [ -0.754150530225558, 42.33282791022684, 498.921756330521362 ], [ -0.754153303548845, 42.332846087576137, 499.309624316756015 ] ] } },
{ "type": "Feature", "properties": { "fid": 10, "order": 9, "altura_media": 508.069, "altura_anterior": 506.156, "delta_altura": 1.913, "pendiente_pct": 19.13, "pendiente_grados": 10.83, "mds_count": 147.0, "mds_sum": 74774.680087952103, "mds_mean": 508.67129311532045, "altura_vegetacion": 0.60253, "penetracion": 99.882, "ratio_veg": 1015.741, "mdt_mean": 508.06876775817227, "mdt_sum": 74686.108860451321, "mdt_count": 147 }, "geometry": { "type": "LineString", "coordinates": [ [ -0.754153303548845, 42.332846087576137, 499.309624316756015 ], [ -0.754155610469943, 42.332861207952298, 499.632262661042716 ], [ -0.754158217452222, 42.332890879920321, 500.620437768404543 ], [ -0.75415792643364, 42.332918895399992, 501.538275322085497 ], [ -0.754155871276431, 42.332935882382294, 502.08444445899039 ] ] } },
{ "type": "Feature", "properties": { "fid": 11, "order": 10, "altura_media": 509.556, "altura_anterior": 508.069, "delta_altura": 1.487, "pendiente_pct": 14.87, "pendiente_grados": 8.458, "mds_count": 146.0, "mds_sum": 74422.935399254333, "mds_mean": 509.74613287160503, "altura_vegetacion": 0.19017, "penetracion": 99.963, "ratio_veg": 1018.302, "mdt_mean": 509.55596427936479, "mdt_sum": 74395.17078478726, "mdt_count": 146 }, "geometry": { "type": "LineString", "coordinates": [ [ -0.754155871276431, 42.332935882382294, 502.08444445899039 ], [ -0.754154737410457, 42.332945254391205, 502.385775322085522 ], [ -0.754148650379387, 42.332969956893677, 503.162937768404618 ], [ -0.75413966533761, 42.332993002906868, 503.869762661042728 ], [ -0.754127227332911, 42.333020020423838, 504.452381330521348 ], [ -0.754125808310264, 42.333022787663964, 504.493316387145626 ] ] } },
{ "type": "Feature", "properties": { "fid": 12, "order": 11, "altura_media": 510.943, "altura_anterior": 509.556, "delta_altura": 1.387, "pendiente_pct": 13.87, "pendiente_grados": 7.897, "mds_count": 148.0, "mds_sum": 75653.420802119887, "mds_mean": 511.17176217648574, "altura_vegetacion": 0.22914, "penetracion": 99.955, "ratio_veg": 1021.115, "mdt_mean": 510.9426211880255, "mdt_sum": 75619.507935827773, "mdt_count": 148 }, "geometry": { "type": "LineString", "coordinates": [ [ -0.754125808310264, 42.333022787663964, 504.493316387145626 ], [ -0.754111336358334, 42.333051009443196, 504.910793776840478 ], [ -0.754091992405598, 42.333085969963285, 505.245 ], [ -0.754080157731419, 42.333106180917184, 505.354018240262178 ] ] } },
{ "type": "Feature", "properties": { "fid": 13, "order": 12, "altura_media": 512.72, "altura_anterior": 510.943, "delta_altura": 1.777, "pendiente_pct": 17.77, "pendiente_grados": 10.076, "mds_count": 146.0, "mds_sum": 75033.781440088773, "mds_mean": 513.93000986362176, "altura_vegetacion": 1.21041, "penetracion": 99.764, "ratio_veg": 1025.652, "mdt_mean": 512.71960340494843, "mdt_sum": 74857.062097122471, "mdt_count": 146 }, "geometry": { "type": "LineString", "coordinates": [ [ -0.754080157731419, 42.333106180917184, 505.354018240262178 ], [ -0.754069195465094, 42.33312490198206, 505.455 ], [ -0.754045954012208, 42.333164519746632, 505.828125 ], [ -0.754031730161906, 42.333188722738335, 506.150152880760345 ] ] } },
{ "type": "Feature", "properties": { "fid": 14, "order": 13, "altura_media": 514.275, "altura_anterior": 512.72, "delta_altura": 1.555, "pendiente_pct": 15.55, "pendiente_grados": 8.839, "mds_count": 147.0, "mds_sum": 75654.183433364582, "mds_mean": 514.65430907050734, "altura_vegetacion": 0.3791, "penetracion": 99.926, "ratio_veg": 1027.93, "mdt_mean": 514.27521203824983, "mdt_sum": 75598.456169622717, "mdt_count": 147 }, "geometry": { "type": "LineString", "coordinates": [ [ -0.754031730161906, 42.333188722738335, 506.150152880760345 ], [ -0.754022268045294, 42.333204823256658, 506.364375 ], [ -0.753998137562688, 42.333245812511862, 507.06375 ], [ -0.753983156763764, 42.333271217394028, 507.589525890245966 ] ] } },
{ "type": "Feature", "properties": { "fid": 15, "order": 14, "altura_media": 515.097, "altura_anterior": 514.275, "delta_altura": 0.822, "pendiente_pct": 8.22, "pendiente_grados": 4.699, "mds_count": 146.0, "mds_sum": 75243.503224695058, "mds_mean": 515.36646044311681, "altura_vegetacion": 0.26944, "penetracion": 99.948, "ratio_veg": 1029.464, "mdt_mean": 515.09701962646352, "mdt_sum": 75204.164865463681, "mdt_count": 146 }, "geometry": { "type": "LineString", "coordinates": [ [ -0.753983156763764, 42.333271217394028, 507.589525890245966 ], [ -0.753973562562686, 42.333287487511846, 507.92625 ], [ -0.753952106304466, 42.333329993759321, 508.651875 ], [ -0.753941256894907, 42.333355634447123, 509.000209717121493 ] ] } },
{ "type": "Feature", "properties": { "fid": 16, "order": 15, "altura_media": 516.072, "altura_anterior": 515.097, "delta_altura": 0.975, "pendiente_pct": 9.75, "pendiente_grados": 5.569, "mds_count": 149.0, "mds_sum": 76922.189484087154, "mds_mean": 516.25630526232987, "altura_vegetacion": 0.1839, "penetracion": 99.964, "ratio_veg": 1031.329, "mdt_mean": 516.07240634104164, "mdt_sum": 76894.788544815208, "mdt_count": 149 }, "geometry": { "type": "LineString", "coordinates": [ [ -0.753941256894907, 42.333355634447123, 509.000209717121493 ], [ -0.753933768793336, 42.33337333125607, 509.240625 ], [ -0.753918550034859, 42.333417500003776, 509.6925 ], [ -0.753911724159857, 42.333442885498066, 509.870198458341804 ] ] } },
{ "type": "Feature", "properties": { "fid": 17, "order": 16, "altura_media": 516.047, "altura_anterior": 516.072, "delta_altura": -0.025, "pendiente_pct": -0.25, "pendiente_grados": -0.143, "mds_count": 151.0, "mds_sum": 77948.515997045208, "mds_mean": 516.21533772877626, "altura_vegetacion": 0.16819, "penetracion": 99.967, "ratio_veg": 1031.263, "mdt_mean": 516.04714279777249, "mdt_sum": 77923.118562463642, "mdt_count": 151 }, "geometry": { "type": "LineString", "coordinates": [ [ -0.753911724159857, 42.333442885498066, 509.870198458341804 ], [ -0.75390645003486, 42.333462500003769, 510.0075 ], [ -0.753887168801437, 42.333505206260895, 510.46375 ], [ -0.753872453967141, 42.333527678214153, 510.795998390786224 ] ] } },
{ "type": "Feature", "properties": { "fid": 18, "order": 17, "altura_media": 515.977, "altura_anterior": 516.047, "delta_altura": -0.07, "pendiente_pct": -0.7, "pendiente_grados": -0.401, "mds_count": 148.0, "mds_sum": 76371.381964091706, "mds_mean": 516.02285110872776, "altura_vegetacion": 0.04627, "penetracion": 99.991, "ratio_veg": 1031.0, "mdt_mean": 515.97658565641723, "mdt_sum": 76364.534677149742, "mdt_count": 148 }, "geometry": { "type": "LineString", "coordinates": [ [ -0.753872453967141, 42.333527678214153, 510.795998390786224 ], [ -0.753860706322463, 42.333545618771275, 511.06125 ], [ -0.753827062587426, 42.333583737529729, 511.8 ], [ -0.753805731443792, 42.333602456170503, 512.259801874267055 ] ] } },
{ "type": "Feature", "properties": { "fid": 19, "order": 18, "altura_media": 516.135, "altura_anterior": 515.977, "delta_altura": 0.158, "pendiente_pct": 1.58, "pendiente_grados": 0.905, "mds_count": 148.0, "mds_sum": 76407.201816028828, "mds_mean": 516.26487713532993, "altura_vegetacion": 0.12946, "penetracion": 99.975, "ratio_veg": 1031.401, "mdt_mean": 516.13541502732824, "mdt_sum": 76388.041424044583, "mdt_count": 148 }, "geometry": { "type": "LineString", "coordinates": [ [ -0.753805731443792, 42.333602456170503, 512.259801874267055 ], [ -0.753786237587427, 42.333619562529726, 512.68 ], [ -0.753744887585806, 42.333654456280527, 513.2493750000001 ], [ -0.753725638781846, 42.333670067928715, 513.368315399212747 ] ] } },
{ "type": "Feature", "properties": { "fid": 20, "order": 19, "altura_media": 516.549, "altura_anterior": 516.135, "delta_altura": 0.414, "pendiente_pct": 4.14, "pendiente_grados": 2.371, "mds_count": 148.0, "mds_sum": 76557.645760508996, "mds_mean": 517.28139027370946, "altura_vegetacion": 0.73245, "penetracion": 99.858, "ratio_veg": 1032.832, "mdt_mean": 516.54893920309223, "mdt_sum": 76449.243002057658, "mdt_count": 148 }, "geometry": { "type": "LineString", "coordinates": [ [ -0.753725638781846, 42.333670067928715, 513.368315399212747 ], [ -0.753703012583613, 42.333688418781598, 513.508125 ], [ -0.753660612581947, 42.333721450032407, 513.45625 ], [ -0.753642066484264, 42.333735319106339, 513.299628861892188 ] ] } },
{ "type": "Feature", "properties": { "fid": 21, "order": 20, "altura_media": 516.756, "altura_anterior": 516.549, "delta_altura": 0.207, "pendiente_pct": 2.07, "pendiente_grados": 1.186, "mds_count": 145.0, "mds_sum": 75038.938186182248, "mds_mean": 517.50991852539482, "altura_vegetacion": 0.75359, "penetracion": 99.854, "ratio_veg": 1033.268, "mdt_mean": 516.7563244064678, "mdt_sum": 74929.667038937827, "mdt_count": 145 }, "geometry": { "type": "LineString", "coordinates": [ [ -0.753642066484264, 42.333735319106339, 513.299628861892188 ], [ -0.753617687581945, 42.333753550032398, 513.09375 ], [ -0.753578468206838, 42.333787215016201, 512.78875 ], [ -0.753562449532891, 42.333803105697818, 512.677113709508149 ] ] } },
{ "type": "Feature", "properties": { "fid": 22, "order": 21, "altura_media": 517.09, "altura_anterior": 516.756, "delta_altura": 0.334, "pendiente_pct": 3.34, "pendiente_grados": 1.913, "mds_count": 148.0, "mds_sum": 76631.950912569679, "mds_mean": 517.78345211195733, "altura_vegetacion": 0.69342, "penetracion": 99.866, "ratio_veg": 1033.875, "mdt_mean": 517.09002904802105, "mdt_sum": 76529.324299107117, "mdt_count": 148 }, "geometry": { "type": "LineString", "coordinates": [ [ -0.753562449532891, 42.333803105697818, 512.677113709508149 ], [ -0.753542954459367, 42.333822444987682, 512.54125 ], [ -0.753511146342836, 42.333859239950307, 512.35125 ], [ -0.753496882767358, 42.333878709772996, 512.283998845911924 ] ] } },
{ "type": "Feature", "properties": { "fid": 23, "order": 22, "altura_media": 517.119, "altura_anterior": 517.09, "delta_altura": 0.029, "pendiente_pct": 0.29, "pendiente_grados": 0.166, "mds_count": 149.0, "mds_sum": 77158.286036982245, "mds_mean": 517.84084588578685, "altura_vegetacion": 0.722, "penetracion": 99.861, "ratio_veg": 1033.961, "mdt_mean": 517.1188473255944, "mdt_sum": 77050.70825151357, "mdt_count": 149 }, "geometry": { "type": "LineString", "coordinates": [ [ -0.753496882767358, 42.333878709772996, 512.283998845911924 ], [ -0.753483043861114, 42.333897599907253, 512.21875 ], [ -0.753456709672645, 42.333935479923781, 512.33125 ], [ -0.753441416438371, 42.333958762950054, 512.553807871327763 ] ] } },
{ "type": "Feature", "properties": { "fid": 24, "order": 23, "altura_media": 517.379, "altura_anterior": 517.119, "delta_altura": 0.26, "pendiente_pct": 2.6, "pendiente_grados": 1.489, "mds_count": 150.0, "mds_sum": 77790.831313971008, "mds_mean": 518.60554209314, "altura_vegetacion": 1.22613, "penetracion": 99.764, "ratio_veg": 1034.987, "mdt_mean": 517.3794121484791, "mdt_sum": 77606.911822271868, "mdt_count": 150 }, "geometry": { "type": "LineString", "coordinates": [ [ -0.753441416438371, 42.333958762950054, 512.553807871327763 ], [ -0.753432143781199, 42.333972880001248, 512.68875 ], [ -0.753409346190477, 42.334009800140855, 513.29125 ], [ -0.753391463491386, 42.334040787842284, 514.011939639658635 ] ] } },
{ "type": "Feature", "properties": { "fid": 25, "order": 24, "altura_media": 518.499, "altura_anterior": 517.379, "delta_altura": 1.12, "pendiente_pct": 11.2, "pendiente_grados": 6.39, "mds_count": 150.0, "mds_sum": 77990.337069092595, "mds_mean": 519.9355804606173, "altura_vegetacion": 1.43688, "penetracion": 99.724, "ratio_veg": 1037.437, "mdt_mean": 518.4987037698794, "mdt_sum": 77774.805565481918, "mdt_count": 150 }, "geometry": { "type": "LineString", "coordinates": [ [ -0.753391463491386, 42.334040787842284, 514.011939639658635 ], [ -0.753388316904089, 42.334046240343753, 514.13875 ], [ -0.753369270945013, 42.33408112079983, 514.855139412736435 ], [ -0.753352208318023, 42.334114441510167, 515.440418238209304 ], [ -0.753347366084667, 42.33412464053557, 515.58625993972953 ] ] } },
{ "type": "Feature", "properties": { "fid": 26, "order": 25, "altura_media": 519.579, "altura_anterior": 518.499, "delta_altura": 1.08, "pendiente_pct": 10.8, "pendiente_grados": 6.164, "mds_count": 149.0, "mds_sum": 77453.156433058844, "mds_mean": 519.81984183260965, "altura_vegetacion": 0.24065, "penetracion": 99.954, "ratio_veg": 1038.399, "mdt_mean": 519.57919040365425, "mdt_sum": 77417.299370144479, "mdt_count": 149 }, "geometry": { "type": "LineString", "coordinates": [ [ -0.753347366084667, 42.33412464053557, 515.58625993972953 ], [ -0.753337129027594, 42.334146202475821, 515.894586476418567 ], [ -0.753324033077912, 42.334176403697654, 516.217644127364338 ], [ -0.75330998054668, 42.334206241769188, 516.539797952837262 ], [ -0.753308156213227, 42.3342098243997, 516.578845386048783 ] ] } },
{ "type": "Feature", "properties": { "fid": 27, "order": 26, "altura_media": 520.995, "altura_anterior": 519.579, "delta_altura": 1.416, "pendiente_pct": 14.16, "pendiente_grados": 8.06, "mds_count": 146.0, "mds_sum": 76075.375867046547, "mds_mean": 521.06421826744213, "altura_vegetacion": 0.0691, "penetracion": 99.987, "ratio_veg": 1041.059, "mdt_mean": 520.99511734228588, "mdt_sum": 76065.287131973746, "mdt_count": 146 }, "geometry": { "type": "LineString", "coordinates": [ [ -0.753308156213227, 42.3342098243997, 516.578845386048783 ], [ -0.753294971432824, 42.334235716690067, 516.861047952837225 ], [ -0.753279005735297, 42.334264828459858, 517.181394127364342 ], [ -0.753262329165446, 42.334293159647046, 517.496198160186736 ] ] } },
{ "type": "Feature", "properties": { "fid": 28, "order": 27, "altura_media": 522.844, "altura_anterior": 520.995, "delta_altura": 1.849, "pendiente_pct": 18.49, "pendiente_grados": 10.476, "mds_count": 150.0, "mds_sum": 78446.32419877396, "mds_mean": 522.97549465849306, "altura_vegetacion": 0.1318, "penetracion": 99.975, "ratio_veg": 1044.819, "mdt_mean": 522.84369237331896, "mdt_sum": 78426.553855997845, "mdt_count": 150 }, "geometry": { "type": "LineString", "coordinates": [ [ -0.753262329165446, 42.334293159647046, 517.496198160186736 ], [ -0.753262083453089, 42.334293577078157, 517.500836476418613 ], [ -0.753243241751012, 42.334325551043705, 518.086043238209299 ], [ -0.753222480623082, 42.334360750355359, 518.937014412736403 ], [ -0.753213694922478, 42.334375634805589, 519.369601091989921 ] ] } },
{ "type": "Feature", "properties": { "fid": 29, "order": 28, "altura_media": 524.785, "altura_anterior": 522.844, "delta_altura": 1.941, "pendiente_pct": 19.41, "pendiente_grados": 10.985, "mds_count": 146.0, "mds_sum": 76636.251474479155, "mds_mean": 524.90583201698053, "altura_vegetacion": 0.12083, "penetracion": 99.977, "ratio_veg": 1048.691, "mdt_mean": 524.7849990677305, "mdt_sum": 76618.609863888647, "mdt_count": 146 }, "geometry": { "type": "LineString", "coordinates": [ [ -0.753213694922478, 42.334375634805589, 519.369601091989921 ], [ -0.753199800062713, 42.334399175011868, 520.05375 ], [ -0.753175200062713, 42.334440825011875, 521.43625 ], [ -0.753165669099462, 42.334458299471748, 521.927022370870191 ] ] } },
{ "type": "Feature", "properties": { "fid": 30, "order": 29, "altura_media": 526.321, "altura_anterior": 524.785, "delta_altura": 1.536, "pendiente_pct": 15.36, "pendiente_grados": 8.732, "mds_count": 147.0, "mds_sum": 77372.942024229953, "mds_mean": 526.34654438251664, "altura_vegetacion": 0.0252, "penetracion": 99.995, "ratio_veg": 1051.668, "mdt_mean": 526.32134331126144, "mdt_sum": 77369.237466755425, "mdt_count": 147 }, "geometry": { "type": "LineString", "coordinates": [ [ -0.753165669099462, 42.334458299471748, 521.927022370870191 ], [ -0.753155075581543, 42.334477722050174, 522.472507924167871 ], [ -0.753139426631865, 42.334509866129487, 523.162523772503505 ], [ -0.753128253224293, 42.334537257251995, 523.506297545006873 ], [ -0.753126439593252, 42.334543387167187, 523.505629183043766 ] ] } },
{ "type": "Feature", "properties": { "fid": 31, "order": 30, "altura_media": 526.678, "altura_anterior": 526.321, "delta_altura": 0.357, "pendiente_pct": 3.57, "pendiente_grados": 2.045, "mds_count": 146.0, "mds_sum": 76953.563199347875, "mds_mean": 527.07919999553337, "altura_vegetacion": 0.4015, "penetracion": 99.924, "ratio_veg": 1052.758, "mdt_mean": 526.677702685594, "mdt_sum": 76894.944592096726, "mdt_count": 146 }, "geometry": { "type": "LineString", "coordinates": [ [ -0.753126439593252, 42.334543387167187, 523.505629183043766 ], [ -0.753121555367395, 42.334559895419254, 523.503829241678204 ], [ -0.753117560391771, 42.334579839034923, 523.501653488595025 ], [ -0.753116268300596, 42.334597088099407, 523.499770285757563 ], [ -0.75311767909634, 42.334611642612863, 523.498179633165705 ], [ -0.753121792780784, 42.334623502575248, 523.496881530819564 ], [ -0.753125297050929, 42.334631957080084, 523.495940727590778 ] ] } },
{ "type": "Feature", "properties": { "fid": 32, "order": 31, "altura_media": 526.534, "altura_anterior": 526.678, "delta_altura": -0.144, "pendiente_pct": -1.44, "pendiente_grados": -0.825, "mds_count": 148.0, "mds_sum": 78088.477831235316, "mds_mean": 527.62485021104942, "altura_vegetacion": 1.09111, "penetracion": 99.793, "ratio_veg": 1053.161, "mdt_mean": 526.53373785414237, "mdt_sum": 77926.993202413069, "mdt_count": 148 }, "geometry": { "type": "LineString", "coordinates": [ [ -0.753125297050929, 42.334631957080084, 523.495940727590778 ], [ -0.753126567836805, 42.334635023014748, 523.49559955547852 ], [ -0.753132004264702, 42.3346462039313, 523.494333707142914 ], [ -0.753138102064752, 42.334657045324796, 523.493083985812632 ], [ -0.753144861237205, 42.334667547195153, 523.49185039148756 ], [ -0.753159305595613, 42.334684698603418, 523.505925195743885 ], [ -0.753181435150706, 42.334708499546913, 523.535308398581265 ], [ -0.753183340356862, 42.334710445376764, 523.538164256929349 ] ] } },
{ "type": "Feature", "properties": { "fid": 33, "order": 32, "altura_media": 526.466, "altura_anterior": 526.534, "delta_altura": -0.068, "pendiente_pct": -0.68, "pendiente_grados": -0.39, "mds_count": 149.0, "mds_sum": 78606.268593172019, "mds_mean": 527.5588496186042, "altura_vegetacion": 1.09326, "penetracion": 99.793, "ratio_veg": 1053.027, "mdt_mean": 526.46559131834044, "mdt_sum": 78443.373106432729, "mdt_count": 149 }, "geometry": { "type": "LineString", "coordinates": [ [ -0.753183340356862, 42.334710445376764, 523.538164256929349 ], [ -0.753211249918049, 42.334738950021467, 523.58 ], [ -0.753248749918047, 42.334776050021475, 523.6400000000001 ], [ -0.753255397680804, 42.334782871019257, 523.649003488415588 ] ] } },
{ "type": "Feature", "properties": { "fid": 34, "order": 33, "altura_media": 526.429, "altura_anterior": 526.466, "delta_altura": -0.037, "pendiente_pct": -0.37, "pendiente_grados": -0.212, "mds_count": 148.0, "mds_sum": 78067.404299676942, "mds_mean": 527.48246148430371, "altura_vegetacion": 1.05329, "penetracion": 99.8, "ratio_veg": 1052.914, "mdt_mean": 526.42916917998866, "mdt_sum": 77911.517038638325, "mdt_count": 148 }, "geometry": { "type": "LineString", "coordinates": [ [ -0.753255397680804, 42.334782871019257, 523.649003488415588 ], [ -0.753285206170166, 42.334813456270062, 523.689375 ], [ -0.753320618673009, 42.334851168768203, 523.728125 ], [ -0.753325361357259, 42.334856415133615, 523.732006085422199 ] ] } },
{ "type": "Feature", "properties": { "fid": 35, "order": 34, "altura_media": 526.709, "altura_anterior": 526.429, "delta_altura": 0.28, "pendiente_pct": 2.8, "pendiente_grados": 1.604, "mds_count": 147.0, "mds_sum": 77617.262057880478, "mds_mean": 528.00858542775836, "altura_vegetacion": 1.29931, "penetracion": 99.754, "ratio_veg": 1053.72, "mdt_mean": 526.70927108077467, "mdt_sum": 77426.262848873885, "mdt_count": 147 }, "geometry": { "type": "LineString", "coordinates": [ [ -0.753325361357259, 42.334856415133615, 523.732006085422199 ], [ -0.753354987425156, 42.334889187516815, 523.75625 ], [ -0.753388312425156, 42.334927512516828, 523.77375 ], [ -0.753391767297798, 42.334931751356542, 523.783488950526589 ] ] } },
{ "type": "Feature", "properties": { "fid": 36, "order": 35, "altura_media": 527.067, "altura_anterior": 526.709, "delta_altura": 0.358, "pendiente_pct": 3.58, "pendiente_grados": 2.05, "mds_count": 149.0, "mds_sum": 78648.195649957386, "mds_mean": 527.84023926145892, "altura_vegetacion": 0.7737, "penetracion": 99.853, "ratio_veg": 1053.908, "mdt_mean": 527.06653944890104, "mdt_sum": 78532.914377886249, "mdt_count": 149 }, "geometry": { "type": "LineString", "coordinates": [ [ -0.753391767297798, 42.334931751356542, 523.783488950526589 ], [ -0.75341573602644, 42.334961158963381, 523.85105443388295 ], [ -0.753437258213597, 42.33499012686044, 523.98816330164891 ], [ -0.753450363814479, 42.335010505289659, 524.15337083668328 ] ] } },
{ "type": "Feature", "properties": { "fid": 37, "order": 36, "altura_media": 527.546, "altura_anterior": 527.067, "delta_altura": 0.479, "pendiente_pct": 4.79, "pendiente_grados": 2.742, "mds_count": 149.0, "mds_sum": 78738.657981655007, "mds_mean": 528.44736900439602, "altura_vegetacion": 0.90121, "penetracion": 99.829, "ratio_veg": 1054.995, "mdt_mean": 527.54615856701957, "mdt_sum": 78604.377626485919, "mdt_count": 149 }, "geometry": { "type": "LineString", "coordinates": [ [ -0.753450363814479, 42.335010505289659, 524.15337083668328 ], [ -0.753452878973843, 42.335014416211116, 524.185076603297716 ], [ -0.75346259829701, 42.335034027017585, 524.441794338829595 ], [ -0.753471683827647, 42.335054028949685, 524.701403206595501 ], [ -0.753480135565297, 42.33507442200753, 524.963903206595546 ], [ -0.753487953509481, 42.335095206191248, 525.229294338829618 ], [ -0.753488208306491, 42.335095957206633, 525.238809387591914 ] ] } },
{ "type": "Feature", "properties": { "fid": 38, "order": 37, "altura_media": 528.034, "altura_anterior": 527.546, "delta_altura": 0.488, "pendiente_pct": 4.88, "pendiente_grados": 2.794, "mds_count": 146.0, "mds_sum": 77243.874858192285, "mds_mean": 529.06763601501564, "altura_vegetacion": 1.03343, "penetracion": 99.805, "ratio_veg": 1056.104, "mdt_mean": 528.03420821192458, "mdt_sum": 77092.994398940995, "mdt_count": 146 }, "geometry": { "type": "LineString", "coordinates": [ [ -0.753488208306491, 42.335095957206633, 525.238809387591914 ], [ -0.753495137659695, 42.335116381500981, 525.497576603297716 ], [ -0.753500583041488, 42.335138616520872, 525.740985041877821 ], [ -0.753504289653232, 42.335161911251134, 525.959519654570045 ], [ -0.753506137176745, 42.335184776628878, 526.141339762417942 ] ] } },
{ "type": "Feature", "properties": { "fid": 39, "order": 38, "altura_media": 528.423, "altura_anterior": 528.034, "delta_altura": 0.389, "pendiente_pct": 3.89, "pendiente_grados": 2.228, "mds_count": 146.0, "mds_sum": 77472.593496012778, "mds_mean": 530.63420202748478, "altura_vegetacion": 2.21145, "penetracion": 99.583, "ratio_veg": 1058.061, "mdt_mean": 528.42274816450913, "mdt_sum": 77149.721232018332, "mdt_count": 146 }, "geometry": { "type": "LineString", "coordinates": [ [ -0.753506137176745, 42.335184776628878, 526.141339762417942 ], [ -0.753506257493134, 42.335186265691895, 526.153180441374275 ], [ -0.75350648655922, 42.335211679843155, 526.321967402290397 ], [ -0.753506159708811, 42.335235189993604, 526.4863608827485 ], [ -0.753505276941406, 42.33525679614322, 526.646360882748581 ], [ -0.753503965240248, 42.335274759308057, 526.788232999983961 ] ] } },
{ "type": "Feature", "properties": { "fid": 40, "order": 39, "altura_media": 528.366, "altura_anterior": 528.423, "delta_altura": -0.057, "pendiente_pct": -0.57, "pendiente_grados": -0.327, "mds_count": 148.0, "mds_sum": 78662.580350099262, "mds_mean": 531.50392128445446, "altura_vegetacion": 3.13791, "penetracion": 99.41, "ratio_veg": 1058.876, "mdt_mean": 528.36601592177067, "mdt_sum": 78198.170356422066, "mdt_count": 148 }, "geometry": { "type": "LineString", "coordinates": [ [ -0.753503965240248, 42.335274759308057, 526.788232999983961 ], [ -0.753503838256603, 42.335276498291975, 526.801967402290416 ], [ -0.753501843654084, 42.335294296439912, 526.953180441374229 ], [ -0.753501408413979, 42.335314481016411, 527.01295572382719 ], [ -0.753502532537635, 42.335337052021529, 526.981293249649298 ], [ -0.753505216026747, 42.335362009455224, 526.858193018840552 ], [ -0.753505618669781, 42.335364604362475, 526.837833562129163 ] ] } },
{ "type": "Feature", "properties": { "fid": 41, "order": 40, "altura_media": 527.437, "altura_anterior": 528.366, "delta_altura": -0.929, "pendiente_pct": -9.29, "pendiente_grados": -5.308, "mds_count": 146.0, "mds_sum": 77408.451051108117, "mds_mean": 530.19487021306929, "altura_vegetacion": 2.75768, "penetracion": 99.48, "ratio_veg": 1056.637, "mdt_mean": 527.43718641469525, "mdt_sum": 77005.829216545506, "mdt_count": 146 }, "geometry": { "type": "LineString", "coordinates": [ [ -0.753505618669781, 42.335364604362475, 526.837833562129163 ], [ -0.753509458883353, 42.335389353317424, 526.64365503140084 ], [ -0.753512947843112, 42.335412391366461, 526.464498289515745 ], [ -0.753515682904686, 42.33543112360239, 526.320722793185269 ], [ -0.753517664067002, 42.335445550025312, 526.212328542409296 ], [ -0.753518700933999, 42.335454100542151, 526.150642642523508 ] ] } },
{ "type": "Feature", "properties": { "fid": 42, "order": 41, "altura_media": 527.469, "altura_anterior": 527.437, "delta_altura": 0.032, "pendiente_pct": 0.32, "pendiente_grados": 0.183, "mds_count": 149.0, "mds_sum": 78700.455434626841, "mds_mean": 528.19097607132107, "altura_vegetacion": 0.72173, "penetracion": 99.863, "ratio_veg": 1054.662, "mdt_mean": 527.46924798669068, "mdt_sum": 78592.917950016912, "mdt_count": 149 }, "geometry": { "type": "LineString", "coordinates": [ [ -0.753518700933999, 42.335454100542151, 526.150642642523508 ], [ -0.753518891329264, 42.335455670635241, 526.139315537187713 ], [ -0.753522081027882, 42.335464820056458, 526.068150850237203 ], [ -0.753527233163591, 42.335472998288779, 525.998834481557651 ], [ -0.753534347736942, 42.335480205331962, 525.931366431148945 ], [ -0.753543424748309, 42.335486441185694, 525.865746699011083 ], [ -0.753554186875478, 42.335491532137709, 525.798574581107459 ], [ -0.753566634118301, 42.335495478187568, 525.729850077438073 ], [ -0.75358076647645, 42.335498279334701, 525.65957318800281 ], [ -0.753596583949413, 42.335499935578483, 525.58774391280167 ], [ -0.75360941205372, 42.335501466877432, 525.756763869784209 ] ] } },
{ "type": "Feature", "properties": { "fid": 43, "order": 42, "altura_media": 527.856, "altura_anterior": 527.469, "delta_altura": 0.387, "pendiente_pct": 3.87, "pendiente_grados": 2.216, "mds_count": 147.0, "mds_sum": 77685.897534361182, "mds_mean": 528.47549343102844, "altura_vegetacion": 0.61979, "penetracion": 99.883, "ratio_veg": 1055.332, "mdt_mean": 527.85570329743882, "mdt_sum": 77594.788384723506, "mdt_count": 147 }, "geometry": { "type": "LineString", "coordinates": [ [ -0.75360941205372, 42.335501466877432, 525.756763869784209 ], [ -0.753616401975585, 42.335502301268207, 525.848861362623893 ], [ -0.753640220556176, 42.335505376401841, 526.442925537469478 ], [ -0.753668039692671, 42.335509160976898, 527.36993643733831 ], [ -0.753699859386852, 42.335513654990528, 528.629894062230278 ], [ -0.753726438170727, 42.335515648343673, 529.699514404658885 ], [ -0.753729128062531, 42.335515584392233, 529.810358472720623 ] ] } },
{ "type": "Feature", "properties": { "fid": 44, "order": 43, "altura_media": 529.453, "altura_anterior": 527.856, "delta_altura": 1.597, "pendiente_pct": 15.97, "pendiente_grados": 9.074, "mds_count": 148.0, "mds_sum": 78458.504425503459, "mds_mean": 530.12502990205041, "altura_vegetacion": 0.67182, "penetracion": 99.873, "ratio_veg": 1058.58, "mdt_mean": 529.45321308383836, "mdt_sum": 78359.075536408083, "mdt_count": 148 }, "geometry": { "type": "LineString", "coordinates": [ [ -0.753729128062531, 42.335515584392233, 529.810358472720623 ], [ -0.753747776040489, 42.335515141039927, 530.578797464623676 ], [ -0.753763872993596, 42.335512133082162, 531.26774324212488 ], [ -0.753774729028775, 42.335506624472536, 531.766351737162495 ], [ -0.753784694933887, 42.335500635657318, 532.285666578458176 ], [ -0.753793770708939, 42.335494166636771, 532.825687766012152 ], [ -0.753801956353987, 42.335487217411085, 533.386415299824307 ], [ -0.753809251869123, 42.335479787980454, 533.967849179894529 ], [ -0.75381667760212, 42.335468701100694, 534.503518734753584 ], [ -0.753818810420776, 42.33546453921813, 534.641804312766112 ] ] } },
{ "type": "Feature", "properties": { "fid": 45, "order": 44, "altura_media": 530.989, "altura_anterior": 529.453, "delta_altura": 1.536, "pendiente_pct": 15.36, "pendiente_grados": 8.732, "mds_count": 150.0, "mds_sum": 79735.050744681474, "mds_mean": 531.56700496454312, "altura_vegetacion": 0.57816, "penetracion": 99.891, "ratio_veg": 1061.557, "mdt_mean": 530.98884227528117, "mdt_sum": 79648.326341292181, "mdt_count": 150 }, "geometry": { "type": "LineString", "coordinates": [ [ -0.753818810420776, 42.33546453921813, 534.641804312766112 ], [ -0.753824233551534, 42.33545395677168, 534.993423964401131 ], [ -0.753831919715853, 42.335435554993367, 535.437564868837512 ], [ -0.75383973609349, 42.335413495765636, 535.835941448062499 ], [ -0.753848011748086, 42.33539127726258, 536.237004737674965 ], [ -0.753853102088604, 42.335378236461935, 536.47229276264477 ] ] } },
{ "type": "Feature", "properties": { "fid": 46, "order": 45, "altura_media": 531.966, "altura_anterior": 530.989, "delta_altura": 0.977, "pendiente_pct": 9.77, "pendiente_grados": 5.58, "mds_count": 148.0, "mds_sum": 78810.743573687869, "mds_mean": 532.50502414653965, "altura_vegetacion": 0.53861, "penetracion": 99.899, "ratio_veg": 1063.472, "mdt_mean": 531.96641880965683, "mdt_sum": 78731.029983829212, "mdt_count": 148 }, "geometry": { "type": "LineString", "coordinates": [ [ -0.753853102088604, 42.335378236461935, 536.47229276264477 ], [ -0.753856746679091, 42.335368899484095, 536.640754737675024 ], [ -0.753865940885947, 42.335346362430023, 537.047191448062449 ], [ -0.753875594368088, 42.335323666100258, 537.45631486883758 ], [ -0.753885024188866, 42.335300881248244, 537.843910149189242 ], [ -0.753888541972513, 42.335292141060691, 537.983788746866253 ] ] } },
{ "type": "Feature", "properties": { "fid": 47, "order": 46, "altura_media": 532.995, "altura_anterior": 531.966, "delta_altura": 1.029, "pendiente_pct": 10.29, "pendiente_grados": 5.875, "mds_count": 147.0, "mds_sum": 78422.863382017444, "mds_mean": 533.48886654433636, "altura_vegetacion": 0.49362, "penetracion": 99.907, "ratio_veg": 1065.485, "mdt_mean": 532.99524573569602, "mdt_sum": 78350.301123147306, "mdt_count": 147 }, "geometry": { "type": "LineString", "coordinates": [ [ -0.753888541972513, 42.335292141060691, 537.983788746866253 ], [ -0.753894230348475, 42.335278007874045, 538.20997728911766 ], [ -0.753903212847113, 42.335255045977711, 538.554516288622949 ], [ -0.753911971684981, 42.335231995559298, 538.877527147704882 ], [ -0.753921128645444, 42.335208910873533, 539.193407577245807 ], [ -0.753922452942406, 42.335205706678437, 539.236199101824809 ] ] } },
{ "type": "Feature", "properties": { "fid": 48, "order": 47, "altura_media": 534.277, "altura_anterior": 532.995, "delta_altura": 1.282, "pendiente_pct": 12.82, "pendiente_grados": 7.305, "mds_count": 151.0, "mds_sum": 80873.254368248818, "mds_mean": 535.58446601489288, "altura_vegetacion": 1.30713, "penetracion": 99.756, "ratio_veg": 1068.864, "mdt_mean": 534.27733905627474, "mdt_sum": 80675.878197497485, "mdt_count": 151 }, "geometry": { "type": "LineString", "coordinates": [ [ -0.753922452942406, 42.335205706678437, 539.236199101824809 ], [ -0.753930683728049, 42.335185791920296, 539.502157577245839 ], [ -0.753940636932348, 42.335162638699494, 539.803777147704864 ], [ -0.753950988257889, 42.335139451210999, 540.098266288622881 ], [ -0.753960263433311, 42.335120178159855, 540.309792612181354 ] ] } },
{ "type": "Feature", "properties": { "fid": 49, "order": 48, "altura_media": 535.103, "altura_anterior": 534.277, "delta_altura": 0.826, "pendiente_pct": 8.26, "pendiente_grados": 4.722, "mds_count": 151.0, "mds_sum": 80969.762707057424, "mds_mean": 536.22359408647299, "altura_vegetacion": 1.12088, "penetracion": 99.791, "ratio_veg": 1070.328, "mdt_mean": 535.10271371061378, "mdt_sum": 80800.509770302684, "mdt_count": 151 }, "geometry": { "type": "LineString", "coordinates": [ [ -0.753960263433311, 42.335120178159855, 540.309792612181354 ], [ -0.753962560901569, 42.335115404207855, 540.362187869898776 ], [ -0.753975354861495, 42.335090497689649, 540.595541891532662 ], [ -0.753989370135668, 42.335064731655883, 540.798328353524312 ], [ -0.754004606721991, 42.335038106106069, 540.970547255873726 ], [ -0.754005601925523, 42.335036699075332, 540.979703909174191 ] ] } },
{ "type": "Feature", "properties": { "fid": 50, "order": 49, "altura_media": 535.645, "altura_anterior": 535.103, "delta_altura": 0.542, "pendiente_pct": 5.42, "pendiente_grados": 3.102, "mds_count": 146.0, "mds_sum": 78390.798676880411, "mds_mean": 536.92327860876992, "altura_vegetacion": 1.27852, "penetracion": 99.762, "ratio_veg": 1071.57, "mdt_mean": 535.64476037217241, "mdt_sum": 78204.135014337167, "mdt_count": 146 }, "geometry": { "type": "LineString", "coordinates": [ [ -0.754005601925523, 42.335036699075332, 540.979703909174191 ], [ -0.754021981261112, 42.33501354176267, 541.130406707048451 ], [ -0.754041493752385, 42.334991038624715, 541.277906707048487 ], [ -0.754063144195572, 42.334970596691129, 541.413047255873721 ], [ -0.754073520398368, 42.334962579246621, 541.466602838078188 ] ] } },
{ "type": "Feature", "properties": { "fid": 51, "order": 50, "altura_media": 536.788, "altura_anterior": 535.645, "delta_altura": 1.143, "pendiente_pct": 11.43, "pendiente_grados": 6.521, "mds_count": 149.0, "mds_sum": 80073.991642528781, "mds_mean": 537.40933988274355, "altura_vegetacion": 0.62114, "penetracion": 99.884, "ratio_veg": 1073.199, "mdt_mean": 536.78819971118742, "mdt_sum": 79981.441756966917, "mdt_count": 149 }, "geometry": { "type": "LineString", "coordinates": [ [ -0.754073520398368, 42.334962579246621, 541.466602838078188 ], [ -0.754086932590855, 42.334952215960726, 541.535828353524266 ], [ -0.754111921133578, 42.334935162882061, 541.692970372465766 ], [ -0.754138109824424, 42.334919437454367, 541.884473312698333 ], [ -0.754165498664226, 42.334905039676848, 542.110337174221854 ], [ -0.75416614666003, 42.334904743430492, 542.116235407603767 ] ] } },
{ "type": "Feature", "properties": { "fid": 52, "order": 51, "altura_media": 537.189, "altura_anterior": 536.788, "delta_altura": 0.401, "pendiente_pct": 4.01, "pendiente_grados": 2.296, "mds_count": 147.0, "mds_sum": 78994.252427884348, "mds_mean": 537.37586685635608, "altura_vegetacion": 0.18734, "penetracion": 99.965, "ratio_veg": 1073.565, "mdt_mean": 537.18852310154045, "mdt_sum": 78966.712895926452, "mdt_count": 147 }, "geometry": { "type": "LineString", "coordinates": [ [ -0.75416614666003, 42.334904743430492, 542.116235407603767 ], [ -0.754194087653971, 42.334891969548686, 542.370561957036557 ], [ -0.754225069884186, 42.334878567688783, 542.59646730468603 ], [ -0.754258445352933, 42.334864834095129, 542.788053217170273 ], [ -0.754271245737659, 42.334859800601329, 542.844333452003866 ] ] } },
{ "type": "Feature", "properties": { "fid": 53, "order": 52, "altura_media": 537.159, "altura_anterior": 537.189, "delta_altura": -0.03, "pendiente_pct": -0.3, "pendiente_grados": -0.172, "mds_count": 148.0, "mds_sum": 79541.386506648429, "mds_mean": 537.44180072059748, "altura_vegetacion": 0.28242, "penetracion": 99.947, "ratio_veg": 1073.602, "mdt_mean": 537.15938353695253, "mdt_sum": 79499.588763468972, "mdt_count": 148 }, "geometry": { "type": "LineString", "coordinates": [ [ -0.754271245737659, 42.334859800601329, 542.844333452003866 ], [ -0.7542942140582, 42.334850768765619, 542.945319694489399 ], [ -0.754332375997908, 42.334836371697911, 543.068266736643636 ], [ -0.754363576934693, 42.334826381672983, 543.168517585650648 ], [ -0.754381288607334, 42.334822302297461, 543.225185318478225 ] ] } },
{ "type": "Feature", "properties": { "fid": 54, "order": 53, "altura_media": 537.442, "altura_anterior": 537.159, "delta_altura": 0.283, "pendiente_pct": 2.83, "pendiente_grados": 1.621, "mds_count": 150.0, "mds_sum": 80623.558810423332, "mds_mean": 537.49039206948885, "altura_vegetacion": 0.04884, "penetracion": 99.991, "ratio_veg": 1073.932, "mdt_mean": 537.44155159269576, "mdt_sum": 80616.232738904364, "mdt_count": 150 }, "geometry": { "type": "LineString", "coordinates": [ [ -0.754381288607334, 42.334822302297461, 543.225185318478225 ], [ -0.754387816878248, 42.334820798696761, 543.24607224151066 ], [ -0.754405095835365, 42.334819622773857, 543.300930704223674 ], [ -0.754415413809929, 42.334822853907497, 543.333092973789689 ], [ -0.754419740233033, 42.334828744197047, 543.378381152330576 ], [ -0.754418075103483, 42.33483729364314, 543.436795239846106 ], [ -0.754410418418599, 42.334848502245435, 543.508335236336734 ], [ -0.754396770174206, 42.334862370002632, 543.593001141802006 ], [ -0.754381696604198, 42.334877338306264, 543.627866528445566 ] ] } },
{ "type": "Feature", "properties": { "fid": 55, "order": 54, "altura_media": 539.146, "altura_anterior": 537.442, "delta_altura": 1.704, "pendiente_pct": 17.04, "pendiente_grados": 9.67, "mds_count": 147.0, "mds_sum": 79257.181134775878, "mds_mean": 539.16449751548214, "altura_vegetacion": 0.01858, "penetracion": 99.997, "ratio_veg": 1077.31, "mdt_mean": 539.14591520535532, "mdt_sum": 79254.449535187232, "mdt_count": 147 }, "geometry": { "type": "LineString", "coordinates": [ [ -0.754381696604198, 42.334877338306264, 543.627866528445566 ], [ -0.754380899952804, 42.334878129393964, 543.629709194242309 ], [ -0.754362807751277, 42.334895780418449, 543.618459393657531 ], [ -0.754342493566109, 42.334915323074902, 543.559251740047557 ], [ -0.754319957393381, 42.334936757362044, 543.452086233412615 ], [ -0.754307600337975, 42.334948624787458, 543.392805200380621 ] ] } },
{ "type": "Feature", "properties": { "fid": 56, "order": 55, "altura_media": 540.387, "altura_anterior": 539.146, "delta_altura": 1.241, "pendiente_pct": 12.41, "pendiente_grados": 7.074, "mds_count": 148.0, "mds_sum": 79982.514607647376, "mds_mean": 540.4223959976174, "altura_vegetacion": 0.03581, "penetracion": 99.993, "ratio_veg": 1079.809, "mdt_mean": 540.38658699480573, "mdt_sum": 79977.21487523125, "mdt_count": 148 }, "geometry": { "type": "LineString", "coordinates": [ [ -0.754307600337975, 42.334948624787458, 543.392805200380621 ], [ -0.75429823541755, 42.334957618632814, 543.347878480095119 ], [ -0.754277327640017, 42.334977906887737, 543.246628480095069 ], [ -0.754257234062145, 42.33499762212729, 543.148336233412579 ], [ -0.754237954685249, 42.335016764351927, 543.053001740047534 ], [ -0.754235551662685, 42.335020902070553, 543.048653625083261 ] ] } },
{ "type": "Feature", "properties": { "fid": 57, "order": 56, "altura_media": 541.571, "altura_anterior": 540.387, "delta_altura": 1.184, "pendiente_pct": 11.84, "pendiente_grados": 6.752, "mds_count": 148.0, "mds_sum": 80159.602936159325, "mds_mean": 541.61893875783323, "altura_vegetacion": 0.0481, "penetracion": 99.991, "ratio_veg": 1082.19, "mdt_mean": 541.57083496478413, "mdt_sum": 80152.483574788042, "mdt_count": 148 }, "geometry": { "type": "LineString", "coordinates": [ [ -0.754235551662685, 42.335020902070553, 543.048653625083261 ], [ -0.754222617926295, 42.335043172413414, 543.025250870023797 ], [ -0.754211223784475, 42.335076846313228, 543.065083623341252 ], [ -0.754205622280972, 42.335107621785461, 543.145831321446394 ] ] } },
{ "type": "Feature", "properties": { "fid": 58, "order": 57, "altura_media": 542.216, "altura_anterior": 541.571, "delta_altura": 0.645, "pendiente_pct": 6.45, "pendiente_grados": 3.69, "mds_count": 148.0, "mds_sum": 80251.996458541384, "mds_mean": 542.24321931446877, "altura_vegetacion": 0.02767, "penetracion": 99.995, "ratio_veg": 1083.459, "mdt_mean": 542.21555223017504, "mdt_sum": 80247.901730065903, "mdt_count": 148 }, "geometry": { "type": "LineString", "coordinates": [ [ -0.754205622280972, 42.335107621785461, 543.145831321446394 ], [ -0.754203772261615, 42.335117786052507, 543.1725 ], [ -0.754200263362176, 42.33516599163196, 543.3475 ], [ -0.754198116837168, 42.335197442443736, 543.329786267929421 ] ] } },
{ "type": "Feature", "properties": { "fid": 59, "order": 58, "altura_media": 542.055, "altura_anterior": 542.216, "delta_altura": -0.161, "pendiente_pct": -1.61, "pendiente_grados": -0.922, "mds_count": 150.0, "mds_sum": 81315.368918148626, "mds_mean": 542.10245945432416, "altura_vegetacion": 0.04738, "penetracion": 99.991, "ratio_veg": 1083.158, "mdt_mean": 542.05507554983888, "mdt_sum": 81308.261332475828, "mdt_count": 150 }, "geometry": { "type": "LineString", "coordinates": [ [ -0.754198116837168, 42.335197442443736, 543.329786267929421 ], [ -0.754197006686568, 42.335213708316473, 543.320625 ], [ -0.754194002235482, 42.335260936106117, 543.091875 ], [ -0.754192445833337, 42.335287367275463, 542.848353574834391 ] ] } },
{ "type": "Feature", "properties": { "fid": 60, "order": 59, "altura_media": 541.622, "altura_anterior": 542.055, "delta_altura": -0.433, "pendiente_pct": -4.33, "pendiente_grados": -2.479, "mds_count": 150.0, "mds_sum": 81255.737893057885, "mds_mean": 541.70491928705258, "altura_vegetacion": 0.083, "penetracion": 99.985, "ratio_veg": 1082.327, "mdt_mean": 541.62192348117844, "mdt_sum": 81243.288522176765, "mdt_count": 150 }, "geometry": { "type": "LineString", "coordinates": [ [ -0.754192445833337, 42.335287367275463, 542.848353574834391 ], [ -0.754191250009604, 42.335307675000905, 542.66125 ], [ -0.754188750009604, 42.335353925000909, 542.02875 ], [ -0.754187423072503, 42.335377313474382, 541.723586108909558 ] ] } },
{ "type": "Feature", "properties": { "fid": 61, "order": 60, "altura_media": 540.999, "altura_anterior": 541.622, "delta_altura": -0.623, "pendiente_pct": -6.23, "pendiente_grados": -3.565, "mds_count": 147.0, "mds_sum": 79532.606006367336, "mds_mean": 541.03813609773692, "altura_vegetacion": 0.03933, "penetracion": 99.993, "ratio_veg": 1081.037, "mdt_mean": 540.99881072714152, "mdt_sum": 79526.825176889804, "mdt_count": 147 }, "geometry": { "type": "LineString", "coordinates": [ [ -0.754187423072503, 42.335377313474382, 541.723586108909558 ], [ -0.754186143759847, 42.335399862500914, 541.429375 ], [ -0.754183431260169, 42.335445487500927, 540.863125 ], [ -0.754182077518491, 42.335467249436519, 540.607084572521444 ] ] } },
{ "type": "Feature", "properties": { "fid": 62, "order": 61, "altura_media": 540.226, "altura_anterior": 540.999, "delta_altura": -0.773, "pendiente_pct": -7.73, "pendiente_grados": -4.42, "mds_count": 148.0, "mds_sum": 79985.685113360392, "mds_mean": 540.44381833351622, "altura_vegetacion": 0.21738, "penetracion": 99.96, "ratio_veg": 1079.671, "mdt_mean": 540.22643766782846, "mdt_sum": 79953.512774838615, "mdt_count": 148 }, "geometry": { "type": "LineString", "coordinates": [ [ -0.754182077518491, 42.335467249436519, 540.607084572521444 ], [ -0.754180612510408, 42.33549080000094, 540.33 ], [ -0.754177687510407, 42.335535800000933, 539.83 ], [ -0.754178880439978, 42.335557177212088, 539.650311837371873 ] ] } },
{ "type": "Feature", "properties": { "fid": 63, "order": 62, "altura_media": 539.366, "altura_anterior": 540.226, "delta_altura": -0.86, "pendiente_pct": -8.6, "pendiente_grados": -4.915, "mds_count": 149.0, "mds_sum": 80382.264177078527, "mds_mean": 539.47828306764109, "altura_vegetacion": 0.11232, "penetracion": 99.979, "ratio_veg": 1077.844, "mdt_mean": 539.36595995098673, "mdt_sum": 80365.528032697024, "mdt_count": 149 }, "geometry": { "type": "LineString", "coordinates": [ [ -0.754178880439978, 42.335557177212088, 539.650311837371873 ], [ -0.754180181243247, 42.335580487501822, 539.454375 ], [ -0.754188093720453, 42.335624862503522, 539.203125000000114 ], [ -0.754194568060936, 42.335646261554672, 539.14150787681524 ] ] } },
{ "type": "Feature", "properties": { "fid": 64, "order": 63, "altura_media": 538.464, "altura_anterior": 539.366, "delta_altura": -0.902, "pendiente_pct": -9.02, "pendiente_grados": -5.154, "mds_count": 148.0, "mds_sum": 79689.689870996066, "mds_mean": 538.4438504797032, "altura_vegetacion": -0.01999, "penetracion": 100.004, "ratio_veg": 1075.908, "mdt_mean": 538.46384318932053, "mdt_sum": 79692.648792019434, "mdt_count": 148 }, "geometry": { "type": "LineString", "coordinates": [ [ -0.754194568060936, 42.335646261554672, 539.14150787681524 ], [ -0.754201424953421, 42.335668925005194, 539.07625 ], [ -0.754220174953422, 42.335712675005183, 539.07375 ], [ -0.75422907269734, 42.335732491938366, 539.080548441808901 ] ] } },
{ "type": "Feature", "properties": { "fid": 65, "order": 64, "altura_media": 537.703, "altura_anterior": 538.464, "delta_altura": -0.761, "pendiente_pct": -7.61, "pendiente_grados": -4.352, "mds_count": 148.0, "mds_sum": 79575.793498394603, "mds_mean": 537.67428039455808, "altura_vegetacion": -0.02869, "penetracion": 100.005, "ratio_veg": 1074.377, "mdt_mean": 537.70297002978737, "mdt_sum": 79580.039564408537, "mdt_count": 148 }, "geometry": { "type": "LineString", "coordinates": [ [ -0.75422907269734, 42.335732491938366, 539.080548441808901 ], [ -0.754237437115532, 42.33575112104436, 539.086939385139999 ], [ -0.754253211433066, 42.335784263123351, 539.115818155420016 ], [ -0.754267497900028, 42.335812101242666, 539.160386310840067 ], [ -0.754270351579484, 42.335817125638528, 539.173821811811649 ] ] } },
{ "type": "Feature", "properties": { "fid": 66, "order": 65, "altura_media": 537.33, "altura_anterior": 537.703, "delta_altura": -0.373, "pendiente_pct": -3.73, "pendiente_grados": -2.136, "mds_count": 147.0, "mds_sum": 78986.118561226991, "mds_mean": 537.32053443011557, "altura_vegetacion": -0.00943, "penetracion": 100.002, "ratio_veg": 1073.65, "mdt_mean": 537.3299600386498, "mdt_sum": 78987.504125681517, "mdt_count": 147 }, "geometry": { "type": "LineString", "coordinates": [ [ -0.754270351579484, 42.335817125638528, 539.173821811811649 ], [ -0.754280296511123, 42.335834635402826, 539.220643851400155 ], [ -0.754295758314967, 42.335855383734639, 539.280147621680157 ], [ -0.754313883312996, 42.335874346237105, 539.338897621680189 ], [ -0.754334671506194, 42.335891522908973, 539.396893851400137 ], [ -0.754335663171258, 42.335892173726009, 539.399314405712062 ] ] } },
{ "type": "Feature", "properties": { "fid": 67, "order": 66, "altura_media": 537.971, "altura_anterior": 537.33, "delta_altura": 0.641, "pendiente_pct": 6.41, "pendiente_grados": 3.668, "mds_count": 148.0, "mds_sum": 79628.559116063028, "mds_mean": 538.03080483826375, "altura_vegetacion": 0.05967, "penetracion": 99.989, "ratio_veg": 1075.002, "mdt_mean": 537.97113383829242, "mdt_sum": 79619.72780806727, "mdt_count": 148 }, "geometry": { "type": "LineString", "coordinates": [ [ -0.754335663171258, 42.335892173726009, 539.399314405712062 ], [ -0.754358122895099, 42.335906913748794, 539.454136310839999 ], [ -0.754382993477242, 42.335921261212334, 539.581767844189244 ], [ -0.754409283252428, 42.335934565298622, 539.779788451447757 ], [ -0.754433351892638, 42.335945215229373, 540.012935215977222 ] ] } },
{ "type": "Feature", "properties": { "fid": 68, "order": 67, "altura_media": 539.471, "altura_anterior": 537.971, "delta_altura": 1.5, "pendiente_pct": 15.0, "pendiente_grados": 8.531, "mds_count": 147.0, "mds_sum": 79300.887535273141, "mds_mean": 539.46181996784446, "altura_vegetacion": -0.00952, "penetracion": 100.002, "ratio_veg": 1077.933, "mdt_mean": 539.47134001462655, "mdt_sum": 79302.286982150108, "mdt_count": 147 }, "geometry": { "type": "LineString", "coordinates": [ [ -0.754433351892638, 42.335945215229373, 540.012935215977222 ], [ -0.754436992220321, 42.335946826006698, 540.048198132615653 ], [ -0.754466120380444, 42.33595804333553, 540.386996887692703 ], [ -0.754493101250052, 42.335971941761279, 540.727646265231328 ], [ -0.754517934831024, 42.3359885212855, 541.070146265231301 ], [ -0.754529796435354, 42.335998591769048, 541.250191163164914 ] ] } },
{ "type": "Feature", "properties": { "fid": 69, "order": 68, "altura_media": 541.143, "altura_anterior": 539.471, "delta_altura": 1.672, "pendiente_pct": 16.72, "pendiente_grados": 9.492, "mds_count": 147.0, "mds_sum": 79595.435580121426, "mds_mean": 541.46554816409139, "altura_vegetacion": 0.32282, "penetracion": 99.94, "ratio_veg": 1081.609, "mdt_mean": 541.14272408681154, "mdt_sum": 79547.980440761297, "mdt_count": 147 }, "geometry": { "type": "LineString", "coordinates": [ [ -0.754529796435354, 42.335998591769048, 541.250191163164914 ], [ -0.754540621124685, 42.336007781909579, 541.414496887692735 ], [ -0.754561160131798, 42.33602972363483, 541.76069813261563 ], [ -0.754577968400086, 42.3360513398489, 542.060363349990212 ], [ -0.754591045925392, 42.336072630553318, 542.313492539816593 ], [ -0.754592210582109, 42.336075242925489, 542.3392351190505 ] ] } },
{ "type": "Feature", "properties": { "fid": 70, "order": 69, "altura_media": 541.778, "altura_anterior": 541.143, "delta_altura": 0.635, "pendiente_pct": 6.35, "pendiente_grados": 3.633, "mds_count": 149.0, "mds_sum": 80724.251112559868, "mds_mean": 541.77349739973067, "altura_vegetacion": -0.00445, "penetracion": 100.001, "ratio_veg": 1082.551, "mdt_mean": 541.77794641274329, "mdt_sum": 80724.914015498754, "mdt_count": 149 }, "geometry": { "type": "LineString", "coordinates": [ [ -0.754592210582109, 42.336075242925489, 542.3392351190505 ], [ -0.754600392703699, 42.33609359574929, 542.520085702094661 ], [ -0.754606008731114, 42.336114235437641, 542.680142836824302 ], [ -0.754611374170753, 42.336135543319735, 542.847671404189214 ], [ -0.754616489022507, 42.336157519395542, 543.022671404189282 ], [ -0.754617689448317, 42.336163107655956, 543.067702570879874 ] ] } },
{ "type": "Feature", "properties": { "fid": 71, "order": 70, "altura_media": 541.834, "altura_anterior": 541.778, "delta_altura": 0.056, "pendiente_pct": 0.56, "pendiente_grados": 0.321, "mds_count": 145.0, "mds_sum": 78565.060227914189, "mds_mean": 541.82800157182203, "altura_vegetacion": -0.00632, "penetracion": 100.001, "ratio_veg": 1082.662, "mdt_mean": 541.8343237190046, "mdt_sum": 78565.976939255663, "mdt_count": 145 }, "geometry": { "type": "LineString", "coordinates": [ [ -0.754617689448317, 42.336163107655956, 543.067702570879874 ], [ -0.754621353286239, 42.336180163665155, 543.205142836824393 ], [ -0.754625966961806, 42.336203476128553, 543.395085702094661 ], [ -0.754641640477903, 42.336228245184145, 543.607542851047356 ], [ -0.754659386256278, 42.336245653933034, 543.763518375679951 ] ] } },
{ "type": "Feature", "properties": { "fid": 72, "order": 71, "altura_media": 541.906, "altura_anterior": 541.834, "delta_altura": 0.072, "pendiente_pct": 0.72, "pendiente_grados": 0.413, "mds_count": 149.0, "mds_sum": 80745.859311379027, "mds_mean": 541.91851886831557, "altura_vegetacion": 0.01246, "penetracion": 99.998, "ratio_veg": 1082.825, "mdt_mean": 541.90605791299038, "mdt_sum": 80744.002629035575, "mdt_count": 149 }, "geometry": { "type": "LineString", "coordinates": [ [ -0.754659386256278, 42.336245653933034, 543.763518375679951 ], [ -0.754668373848766, 42.336254470827711, 543.842514283682476 ], [ -0.754706167090306, 42.336282153051854, 544.1 ], [ -0.754747730777551, 42.336306944009564, 544.338220832289949 ] ] } },
{ "type": "Feature", "properties": { "fid": 73, "order": 72, "altura_media": 541.951, "altura_anterior": 541.906, "delta_altura": 0.045, "pendiente_pct": 0.45, "pendiente_grados": 0.258, "mds_count": 150.0, "mds_sum": 81292.684739240955, "mds_mean": 541.95123159493971, "altura_vegetacion": 0.00055, "penetracion": 100.0, "ratio_veg": 1082.902, "mdt_mean": 541.95067861727739, "mdt_sum": 81292.601792591609, "mdt_count": 150 }, "geometry": { "type": "LineString", "coordinates": [ [ -0.754747730777551, 42.336306944009564, 544.338220832289949 ], [ -0.754755020220087, 42.336311291846059, 544.38 ], [ -0.754798469405875, 42.336336246312591, 544.543516375252693 ], [ -0.754836514632555, 42.336357016457335, 544.590549125758002 ], [ -0.754844602513498, 42.33636112611115, 544.573340518994314 ] ] } },
{ "type": "Feature", "properties": { "fid": 74, "order": 73, "altura_media": 541.923, "altura_anterior": 541.951, "delta_altura": -0.028, "pendiente_pct": -0.28, "pendiente_grados": -0.16, "mds_count": 146.0, "mds_sum": 79117.18536263537, "mds_mean": 541.89852988106418, "altura_vegetacion": -0.02404, "penetracion": 100.004, "ratio_veg": 1082.821, "mdt_mean": 541.92256723683784, "mdt_sum": 79120.694816578325, "mdt_count": 146 }, "geometry": { "type": "LineString", "coordinates": [ [ -0.754844602513498, 42.33636112611115, 544.573340518994314 ], [ -0.754869155887159, 42.336373602285377, 544.521098251516037 ], [ -0.754896393158871, 42.336386003801174, 544.33516375252691 ], [ -0.754923662182461, 42.336397458256322, 544.150946503032287 ], [ -0.754948769300008, 42.336407121366811, 543.983110639898086 ] ] } },
{ "type": "Feature", "properties": { "fid": 75, "order": 74, "altura_media": 541.731, "altura_anterior": 541.923, "delta_altura": -0.192, "pendiente_pct": -1.92, "pendiente_grados": -1.1, "mds_count": 148.0, "mds_sum": 80185.791369298895, "mds_mean": 541.79588763039794, "altura_vegetacion": 0.0652, "penetracion": 99.988, "ratio_veg": 1082.527, "mdt_mean": 541.73068541999316, "mdt_sum": 80176.141442158987, "mdt_count": 148 }, "geometry": { "type": "LineString", "coordinates": [ [ -0.754948769300008, 42.336407121366811, 543.983110639898086 ], [ -0.754950962956737, 42.3364079656508, 543.968446503032169 ], [ -0.75497829548051, 42.33641752598453, 543.787663752526896 ], [ -0.755005659752583, 42.336426139257497, 543.608598251516128 ], [ -0.755031078043864, 42.336435261302015, 543.420803672783563 ], [ -0.755054550354061, 42.33644489211941, 543.224280016329089 ], [ -0.755057813475456, 42.336446429154734, 543.193166272350936 ] ] } },
{ "type": "Feature", "properties": { "fid": 76, "order": 75, "altura_media": 541.654, "altura_anterior": 541.731, "delta_altura": -0.077, "pendiente_pct": -0.77, "pendiente_grados": -0.441, "mds_count": 146.0, "mds_sum": 79126.004318693333, "mds_mean": 541.95893368968041, "altura_vegetacion": 0.30466, "penetracion": 99.944, "ratio_veg": 1082.614, "mdt_mean": 541.65427615381736, "mdt_sum": 79081.524318457334, "mdt_count": 146 }, "geometry": { "type": "LineString", "coordinates": [ [ -0.755057813475456, 42.336446429154734, 543.193166272350936 ], [ -0.75507607668279, 42.336455031710834, 543.01902728215282 ], [ -0.755095657029573, 42.33646568007741, 542.805045470254527 ], [ -0.755111090604947, 42.336475742387492, 542.620440136078514 ], [ -0.755122377406438, 42.336485218642764, 542.465211279624441 ], [ -0.755129517431819, 42.336494108844363, 542.339358900892535 ], [ -0.755132510679113, 42.336502412993006, 542.242882999882909 ], [ -0.755136450834618, 42.336510399137318, 542.146265502352549 ], [ -0.755136809711616, 42.336510962240091, 542.139160087544838 ] ] } },
{ "type": "Feature", "properties": { "fid": 77, "order": 76, "altura_media": 541.86, "altura_anterior": 541.654, "delta_altura": 0.206, "pendiente_pct": 2.06, "pendiente_grados": 1.18, "mds_count": 151.0, "mds_sum": 81823.571685826711, "mds_mean": 541.87795818428287, "altura_vegetacion": 0.0178, "penetracion": 99.997, "ratio_veg": 1082.738, "mdt_mean": 541.86015511476523, "mdt_sum": 81820.883422329556, "mdt_count": 151 }, "geometry": { "type": "LineString", "coordinates": [ [ -0.755136809711616, 42.336510962240091, 542.139160087544838 ], [ -0.755141337898641, 42.336518067277183, 542.049506408301568 ], [ -0.755147171871464, 42.336525417412517, 541.95260571773008 ], [ -0.755153952753341, 42.336532449543149, 541.855563430638085 ], [ -0.755162018935567, 42.33654001167649, 541.823661864057158 ], [ -0.755171370418813, 42.336548103812312, 541.856901017987298 ], [ -0.755182007203813, 42.336556725950267, 541.955280892428618 ], [ -0.755193929291369, 42.336565878090063, 542.11880148738112 ], [ -0.755204770477614, 42.336573536643179, 542.262226877206558 ], [ -0.755214173696806, 42.33657947607432, 542.381045222031844 ] ] } },
{ "type": "Feature", "properties": { "fid": 78, "order": 77, "altura_media": 542.017, "altura_anterior": 541.86, "delta_altura": 0.157, "pendiente_pct": 1.57, "pendiente_grados": 0.899, "mds_count": 149.0, "mds_sum": 80762.258083436638, "mds_mean": 542.02857774118547, "altura_vegetacion": 0.01127, "penetracion": 99.998, "ratio_veg": 1083.046, "mdt_mean": 542.01730644609415, "mdt_sum": 80760.578660468032, "mdt_count": 149 }, "geometry": { "type": "LineString", "coordinates": [ [ -0.755214173696806, 42.33657947607432, 542.381045222031844 ], [ -0.755214530761394, 42.336579701609885, 542.385557061904933 ], [ -0.755223210141709, 42.33658437299043, 542.488792041476472 ], [ -0.755230808617701, 42.336587550785097, 542.571931815920948 ], [ -0.75523900065143, 42.336589982963496, 542.65749660040467 ], [ -0.755247786242681, 42.336591669525546, 542.745486394927639 ], [ -0.755257165391203, 42.336592610471051, 542.83590119948974 ], [ -0.755267138096693, 42.336592805799903, 542.928741014091088 ], [ -0.755277383646745, 42.336593300954668, 543.023742542887817 ], [ -0.755287902041511, 42.33659409593529, 543.120905785879927 ], [ -0.755298693281157, 42.336595190741704, 543.220230743067532 ], [ -0.755309757365853, 42.336596585373826, 543.321717414450404 ], [ -0.755321341532715, 42.336600892950159, 543.445971039092569 ], [ -0.755327710696036, 42.336604692332656, 543.523332136847557 ] ] } },
{ "type": "Feature", "properties": { "fid": 79, "order": 78, "altura_media": 541.794, "altura_anterior": 542.017, "delta_altura": -0.223, "pendiente_pct": -2.23, "pendiente_grados": -1.277, "mds_count": 147.0, "mds_sum": 80043.126257649928, "mds_mean": 544.51106297721037, "altura_vegetacion": 2.71701, "penetracion": 99.501, "ratio_veg": 1085.31, "mdt_mean": 541.79405133223122, "mdt_sum": 79643.725545837995, "mdt_count": 147 }, "geometry": { "type": "LineString", "coordinates": [ [ -0.755327710696036, 42.336604692332656, 543.523332136847557 ], [ -0.755333445783436, 42.336608113470589, 543.592991616993686 ], [ -0.755346070119838, 42.336618246935004, 543.762779148153982 ], [ -0.755359214543869, 42.33663129334326, 543.955333632573229 ], [ -0.755372419174754, 42.336642206768332, 544.131989160937565 ], [ -0.755385684011233, 42.33665098721027, 544.292745733247102 ], [ -0.755399009052025, 42.33665763466896, 544.437603349501387 ], [ -0.755412394295827, 42.336662149144402, 544.566562009700874 ], [ -0.75541726093891, 42.336663332147808, 544.612977330004469 ] ] } },
{ "type": "Feature", "properties": { "fid": 80, "order": 79, "altura_media": 542.948, "altura_anterior": 541.794, "delta_altura": 1.154, "pendiente_pct": 11.54, "pendiente_grados": 6.583, "mds_count": 147.0, "mds_sum": 79899.239806170037, "mds_mean": 543.53224357938802, "altura_vegetacion": 0.58414, "penetracion": 99.893, "ratio_veg": 1085.481, "mdt_mean": 542.94810833256622, "mdt_sum": 79813.371924887237, "mdt_count": 147 }, "geometry": { "type": "LineString", "coordinates": [ [ -0.75541726093891, 42.336663332147808, 544.612977330004469 ], [ -0.755424730798941, 42.336665147951265, 544.68422067432391 ], [ -0.755436018560321, 42.336666631089884, 544.790579343370837 ], [ -0.755446257579069, 42.336666598560491, 544.885638016841426 ], [ -0.755455447854441, 42.336665050363415, 544.969396694735678 ], [ -0.755467336069147, 42.336662136015278, 545.080489788218983 ], [ -0.75548192222207, 42.336657855515234, 545.218917297291455 ], [ -0.755499206311746, 42.336652208862205, 545.384679221952865 ], [ -0.755519188336364, 42.336645196054917, 545.577775562203442 ], [ -0.755531040519098, 42.336640962525792, 545.691735889072106 ] ] } },
{ "type": "Feature", "properties": { "fid": 81, "order": 80, "altura_media": 545.039, "altura_anterior": 542.948, "delta_altura": 2.091, "pendiente_pct": 20.91, "pendiente_grados": 11.81, "mds_count": 147.0, "mds_sum": 80124.848929712825, "mds_mean": 545.06699952185591, "altura_vegetacion": 0.02808, "penetracion": 99.995, "ratio_veg": 1089.106, "mdt_mean": 545.03891671709653, "mdt_sum": 80120.72075741319, "mdt_count": 147 }, "geometry": { "type": "LineString", "coordinates": [ [ -0.755531040519098, 42.336640962525792, 545.691735889072106 ], [ -0.755537164710988, 42.336638775000189, 545.75062082146394 ], [ -0.755553135436708, 42.336632945698966, 545.903214999734473 ], [ -0.755567100514497, 42.336627708152122, 546.035558097014928 ], [ -0.755579059945223, 42.336623062360424, 546.147650113305303 ], [ -0.755593842073175, 42.336620340914038, 546.280732366914322 ], [ -0.755611446899402, 42.336619543811914, 546.434804857841868 ], [ -0.755631874425464, 42.336620671052771, 546.609867586088058 ], [ -0.755645899438893, 42.336622511830335, 546.728130750417222 ] ] } },
{ "type": "Feature", "properties": { "fid": 82, "order": 81, "altura_media": 546.746, "altura_anterior": 545.039, "delta_altura": 1.707, "pendiente_pct": 17.07, "pendiente_grados": 9.687, "mds_count": 145.0, "mds_sum": 79289.414555822761, "mds_mean": 546.82354866084665, "altura_vegetacion": 0.07742, "penetracion": 99.986, "ratio_veg": 1092.57, "mdt_mean": 546.74612860048626, "mdt_sum": 79278.188647070507, "mdt_count": 145 }, "geometry": { "type": "LineString", "coordinates": [ [ -0.755645899438893, 42.336622511830335, 546.728130750417222 ], [ -0.755655124653443, 42.336623722635174, 546.805920551652889 ], [ -0.755678718728365, 42.336629100741526, 546.974261674817171 ], [ -0.755702656652915, 42.33663680537169, 547.114890955581131 ], [ -0.755726938429838, 42.336646836525517, 547.227808393944429 ], [ -0.755751564061945, 42.336659194202838, 547.31301398990729 ], [ -0.75575450045214, 42.336660829769777, 547.323573058804755 ] ] } },
{ "type": "Feature", "properties": { "fid": 83, "order": 82, "altura_media": 547.083, "altura_anterior": 546.746, "delta_altura": 0.337, "pendiente_pct": 3.37, "pendiente_grados": 1.93, "mds_count": 150.0, "mds_sum": 82079.025607882853, "mds_mean": 547.19350405255238, "altura_vegetacion": 0.111, "penetracion": 99.98, "ratio_veg": 1093.276, "mdt_mean": 547.08250596382231, "mdt_sum": 82062.375894573343, "mdt_count": 150 }, "geometry": { "type": "LineString", "coordinates": [ [ -0.75575450045214, 42.336660829769777, 547.323573058804755 ], [ -0.755775751876611, 42.33667266679106, 547.399991787888666 ], [ -0.755799501874788, 42.336687254290489, 547.488741787888785 ], [ -0.755822814057392, 42.336702956701409, 547.579263989907304 ], [ -0.755845688425282, 42.336719774024075, 547.671558393944224 ], [ -0.755845852055445, 42.336719906553775, 547.67216932929432 ] ] } },
{ "type": "Feature", "properties": { "fid": 84, "order": 83, "altura_media": 546.563, "altura_anterior": 547.083, "delta_altura": -0.52, "pendiente_pct": -5.2, "pendiente_grados": -2.977, "mds_count": 151.0, "mds_sum": 82538.244292751464, "mds_mean": 546.61088935597002, "altura_vegetacion": 0.04817, "penetracion": 99.991, "ratio_veg": 1092.174, "mdt_mean": 546.56272366263067, "mdt_sum": 82530.971273057236, "mdt_count": 151 }, "geometry": { "type": "LineString", "coordinates": [ [ -0.755845852055445, 42.336719906553775, 547.67216932929432 ], [ -0.755866796258367, 42.336736869978211, 547.750367323727005 ], [ -0.755886137555436, 42.336754244564737, 547.815690779255647 ], [ -0.755903712315237, 42.336771897784502, 547.867528760529808 ], [ -0.755919520536476, 42.336789829638327, 547.905881267549603 ], [ -0.755920432288258, 42.336790711149661, 547.907885030961097 ] ] } },
{ "type": "Feature", "properties": { "fid": 85, "order": 84, "altura_media": 546.236, "altura_anterior": 546.563, "delta_altura": -0.327, "pendiente_pct": -3.27, "pendiente_grados": -1.873, "mds_count": 145.0, "mds_sum": 79232.738521041945, "mds_mean": 546.43267945546165, "altura_vegetacion": 0.19669, "penetracion": 99.964, "ratio_veg": 1091.669, "mdt_mean": 546.23599300896535, "mdt_sum": 79204.21898629998, "mdt_count": 145 }, "geometry": { "type": "LineString", "coordinates": [ [ -0.755920432288258, 42.336790711149661, 547.907885030961097 ], [ -0.755937630894759, 42.336807339316948, 547.945682521059553 ], [ -0.7559580433917, 42.336824426819348, 547.986932521059543 ], [ -0.755980758028832, 42.336841092144283, 548.029631267549689 ], [ -0.756003609817125, 42.336855929584182, 548.069958169565666 ] ] } },
{ "type": "Feature", "properties": { "fid": 86, "order": 85, "altura_media": 546.146, "altura_anterior": 546.236, "delta_altura": -0.09, "pendiente_pct": -0.9, "pendiente_grados": -0.516, "mds_count": 149.0, "mds_sum": 81411.878941370858, "mds_mean": 546.38844927094533, "altura_vegetacion": 0.2428, "penetracion": 99.956, "ratio_veg": 1091.535, "mdt_mean": 546.14565221701912, "mdt_sum": 81375.702180335851, "mdt_count": 149 }, "geometry": { "type": "LineString", "coordinates": [ [ -0.756003609817125, 42.336855929584182, 548.069958169565666 ], [ -0.756005774807593, 42.336857335290475, 548.073778760529763 ], [ -0.756030718593015, 42.336872936206049, 548.108109923286065 ], [ -0.756055589384298, 42.336887894891063, 548.132624755818597 ], [ -0.75608038718065, 42.336902211345517, 548.147323258127244 ], [ -0.756098345850935, 42.336912143514866, 548.150869386782233 ] ] } },
{ "type": "Feature", "properties": { "fid": 87, "order": 86, "altura_media": 546.021, "altura_anterior": 546.146, "delta_altura": -0.125, "pendiente_pct": -1.25, "pendiente_grados": -0.716, "mds_count": 149.0, "mds_sum": 81385.179280628276, "mds_mean": 546.20925691696834, "altura_vegetacion": 0.18826, "penetracion": 99.966, "ratio_veg": 1091.231, "mdt_mean": 546.0209984855054, "mdt_sum": 81357.128774340308, "mdt_count": 149 }, "geometry": { "type": "LineString", "coordinates": [ [ -0.756098345850935, 42.336912143514866, 548.150869386782233 ], [ -0.75610511198128, 42.336915885569475, 548.152205430212007 ], [ -0.75613070563165, 42.336929072682338, 548.157146516254443 ], [ -0.756157168131748, 42.336941772683566, 548.162146516254552 ], [ -0.756184499481528, 42.336953985572485, 548.167205430212107 ], [ -0.756200478285437, 42.336960629635975, 548.170105295363328 ] ] } },
{ "type": "Feature", "properties": { "fid": 88, "order": 87, "altura_media": 546.354, "altura_anterior": 546.021, "delta_altura": 0.333, "pendiente_pct": 3.33, "pendiente_grados": 1.907, "mds_count": 150.0, "mds_sum": 82012.735790451508, "mds_mean": 546.75157193634334, "altura_vegetacion": 0.39713, "penetracion": 99.927, "ratio_veg": 1092.107, "mdt_mean": 546.35444084905737, "mdt_sum": 81953.166127358607, "mdt_count": 150 }, "geometry": { "type": "LineString", "coordinates": [ [ -0.756200478285437, 42.336960629635975, 548.170105295363328 ], [ -0.7562126996809, 42.33696571134854, 548.172323258127221 ], [ -0.7562399384847, 42.336984788705323, 548.058661629063636 ], [ -0.756266215901269, 42.337011217643671, 547.826220543021236 ], [ -0.756272221669559, 42.337029684222209, 547.648885433096098 ] ] } },
{ "type": "Feature", "properties": { "fid": 89, "order": 88, "altura_media": 545.548, "altura_anterior": 546.354, "delta_altura": -0.806, "pendiente_pct": -8.06, "pendiente_grados": -4.608, "mds_count": 148.0, "mds_sum": 80795.589058693338, "mds_mean": 545.91614228846845, "altura_vegetacion": 0.36782, "penetracion": 99.933, "ratio_veg": 1090.465, "mdt_mean": 545.54831753292922, "mdt_sum": 80741.150994873518, "mdt_count": 148 }, "geometry": { "type": "LineString", "coordinates": [ [ -0.756272221669559, 42.337029684222209, 547.648885433096098 ], [ -0.756278110611623, 42.337047791572509, 547.475 ], [ -0.756289855118047, 42.337079705855587, 547.005 ], [ -0.756307931375037, 42.337115596140052, 546.700772620249722 ] ] } },
{ "type": "Feature", "properties": { "fid": 90, "order": 89, "altura_media": 544.897, "altura_anterior": 545.548, "delta_altura": -0.651, "pendiente_pct": -6.51, "pendiente_grados": -3.725, "mds_count": 146.0, "mds_sum": 79594.396731745917, "mds_mean": 545.16710090236927, "altura_vegetacion": 0.27038, "penetracion": 99.95, "ratio_veg": 1089.064, "mdt_mean": 544.89672406333477, "mdt_sum": 79554.921713246877, "mdt_count": 146 }, "geometry": { "type": "LineString", "coordinates": [ [ -0.756307931375037, 42.337115596140052, 546.700772620249722 ], [ -0.756315181590118, 42.337129991380671, 546.57875 ], [ -0.756346801348827, 42.337174867914193, 546.19625 ], [ -0.756365747028997, 42.337194343027178, 546.021171113861442 ] ] } },
{ "type": "Feature", "properties": { "fid": 91, "order": 90, "altura_media": 544.669, "altura_anterior": 544.897, "delta_altura": -0.228, "pendiente_pct": -2.28, "pendiente_grados": -1.306, "mds_count": 149.0, "mds_sum": 81174.866533294888, "mds_mean": 544.79776196842204, "altura_vegetacion": 0.12903, "penetracion": 99.976, "ratio_veg": 1088.467, "mdt_mean": 544.66873043456906, "mdt_sum": 81155.640834750782, "mdt_count": 149 }, "geometry": { "type": "LineString", "coordinates": [ [ -0.756365747028997, 42.337194343027178, 546.021171113861442 ], [ -0.756383458258933, 42.337212549180087, 545.8575 ], [ -0.756404151361596, 42.337255696352784, 545.5625 ], [ -0.756414474395561, 42.337276078418746, 545.401483371203312 ] ] } },
{ "type": "Feature", "properties": { "fid": 92, "order": 91, "altura_media": 543.553, "altura_anterior": 544.669, "delta_altura": -1.116, "pendiente_pct": -11.16, "pendiente_grados": -6.368, "mds_count": 147.0, "mds_sum": 79954.896092313254, "mds_mean": 543.91085777083845, "altura_vegetacion": 0.35798, "penetracion": 99.934, "ratio_veg": 1086.464, "mdt_mean": 543.5528763152721, "mdt_sum": 79902.272818344994, "mdt_count": 147 }, "geometry": { "type": "LineString", "coordinates": [ [ -0.756414474395561, 42.337276078418746, 545.401483371203312 ], [ -0.756425909243912, 42.337298655664071, 545.223125 ], [ -0.756464992898611, 42.337339626863589, 544.839375 ], [ -0.756473244084366, 42.3373540959753, 544.70097056119323 ] ] } },
{ "type": "Feature", "properties": { "fid": 93, "order": 92, "altura_media": 542.584, "altura_anterior": 543.553, "delta_altura": -0.969, "pendiente_pct": -9.69, "pendiente_grados": -5.535, "mds_count": 150.0, "mds_sum": 81484.035207565888, "mds_mean": 543.22690138377254, "altura_vegetacion": 0.64293, "penetracion": 99.882, "ratio_veg": 1084.812, "mdt_mean": 542.58397335087204, "mdt_sum": 81387.596002630802, "mdt_count": 150 }, "geometry": { "type": "LineString", "coordinates": [ [ -0.756473244084366, 42.3373540959753, 544.70097056119323 ], [ -0.75649051621691, 42.337384384013482, 544.41125 ], [ -0.756524741411489, 42.337435567847145, 543.945976984786057 ] ] } },
{ "type": "Feature", "properties": { "fid": 94, "order": 93, "altura_media": 541.575, "altura_anterior": 542.584, "delta_altura": -1.009, "pendiente_pct": -10.09, "pendiente_grados": -5.762, "mds_count": 148.0, "mds_sum": 80253.902977602906, "mds_mean": 542.25610120001966, "altura_vegetacion": 0.6814, "penetracion": 99.874, "ratio_veg": 1082.832, "mdt_mean": 541.57470033238246, "mdt_sum": 80153.055649192611, "mdt_count": 148 }, "geometry": { "type": "LineString", "coordinates": [ [ -0.756524741411489, 42.337435567847145, 543.945976984786057 ], [ -0.756525273024437, 42.337436362874456, 543.93875 ], [ -0.756558961044631, 42.337480273983019, 543.36375 ], [ -0.756578324802314, 42.337516111885918, 542.820940978443446 ] ] } },
{ "type": "Feature", "properties": { "fid": 95, "order": 94, "altura_media": 540.437, "altura_anterior": 541.575, "delta_altura": -1.138, "pendiente_pct": -11.38, "pendiente_grados": -6.492, "mds_count": 149.0, "mds_sum": 80672.098889577712, "mds_mean": 541.42348248038729, "altura_vegetacion": 0.98638, "penetracion": 99.818, "ratio_veg": 1080.862, "mdt_mean": 540.437107051613, "mdt_sum": 80525.128950690341, "mdt_count": 149 }, "geometry": { "type": "LineString", "coordinates": [ [ -0.756578324802314, 42.337516111885918, 542.820940978443446 ], [ -0.756583129669501, 42.337525004593616, 542.68625 ], [ -0.756614108146159, 42.337568862646719, 541.90625 ], [ -0.756632109904065, 42.337596757884143, 541.344269794816228 ] ] } },
{ "type": "Feature", "properties": { "fid": 96, "order": 95, "altura_media": 539.33, "altura_anterior": 540.437, "delta_altura": -1.107, "pendiente_pct": -11.07, "pendiente_grados": -6.317, "mds_count": 146.0, "mds_sum": 78758.843314692, "mds_mean": 539.44413229241093, "altura_vegetacion": 0.11444, "penetracion": 99.979, "ratio_veg": 1077.774, "mdt_mean": 539.32969651900362, "mdt_sum": 78742.135691774529, "mdt_count": 146 }, "geometry": { "type": "LineString", "coordinates": [ [ -0.756632109904065, 42.337596757884143, 541.344269794816228 ], [ -0.756642377033765, 42.337612667652934, 541.02375 ], [ -0.756668293773211, 42.337646368085849, 506.630625 ], [ -0.756689665274017, 42.337674447356001, 438.726875 ], [ -0.75669065989052, 42.337675563041188, 433.200611153895068 ] ] } },
{ "type": "Feature", "properties": { "fid": 97, "order": 96, "altura_media": 537.807, "altura_anterior": 539.33, "delta_altura": -1.523, "pendiente_pct": -15.23, "pendiente_grados": -8.66, "mds_count": 148.0, "mds_sum": 79619.745353328311, "mds_mean": 537.9712523873535, "altura_vegetacion": 0.16441, "penetracion": 99.969, "ratio_veg": 1074.778, "mdt_mean": 537.80684371543111, "mdt_sum": 79595.412869883803, "mdt_count": 148 }, "geometry": { "type": "LineString", "coordinates": [ [ -0.75669065989052, 42.337675563041188, 433.200611153895068 ], [ -0.756707917830253, 42.337694921678903, 337.3125 ], [ -0.756717667905659, 42.337706679828017, 202.3875 ], [ -0.75672214168845, 42.337714311290085, 101.19375 ], [ -0.756727364368927, 42.337719945705629, 33.73125 ], [ -0.756735314558376, 42.337725130581767, 0.0 ], [ -0.756745207617606, 42.337732868117271, 0.0 ], [ -0.756754494756845, 42.337738582087049, 0.0 ], [ -0.756761125875675, 42.337742735290213, 0.0 ], [ -0.756764781330215, 42.337745594283284, 0.0 ] ] } },
{ "type": "Feature", "properties": { "fid": 98, "order": 97, "altura_media": 536.917, "altura_anterior": 537.807, "delta_altura": -0.89, "pendiente_pct": -8.9, "pendiente_grados": -5.086, "mds_count": 42.0, "mds_sum": 22550.946795465097, "mds_mean": 536.92730465393083, "altura_vegetacion": 0.0103, "penetracion": 99.998, "ratio_veg": 1072.844, "mdt_mean": 536.91700376115239, "mdt_sum": 22550.514157968402, "mdt_count": 42 }, "geometry": { "type": "LineString", "coordinates": [ [ -0.756764781330215, 42.337745594283284, 0.0 ], [ -0.756766402176792, 42.337746861974793, 0.0 ], [ -0.756767655980483, 42.337755355391593, 0.0 ] ] } }
]
}
